HULIANWANG DIGUI-97     
1 66413U 25258B   26064.71699977 -.00000043  00000+0  17538-3 0  9999
2 66413  50.0017 306.9964 0000423  98.9631 261.1289 13.29332474 15965
HULIANWANG DIGUI-98     
1 66414U 25258C   26064.70862001 -.00000041  00000+0  17963-3 0  9999
2 66414  50.0054 306.9950 0000482 111.0749 249.0175 13.29334072 15969
HULIANWANG DIGUI-99     
1 66415U 25258D   26064.75041370 -.00000053  00000+0  15254-3 0  9997
2 66415  50.0052 306.5459 0000365  93.2747 266.8167 13.29331549 15961
HULIANWANG DIGUI-100    
1 66416U 25258E   26064.70027157 -.00000043  00000+0  17434-3 0  9991
2 66416  50.0056 306.9539 0000346  91.6015 268.4897 13.29334590 15976
HULIANWANG DIGUI-101    
1 66417U 25258F   26064.76711098 -.00000052  00000+0  15567-3 0  9997
2 66417  50.0006 306.5820 0000378  86.5335 273.5580 13.29332766 15984
HULIANWANG DIGUI-102    
1 66418U 25258G   26064.74201969 -.00000049  00000+0  16102-3 0  9999
2 66418  50.0019 306.4626 0000388 105.1669 254.9246 13.29334649 15974
HULIANWANG DIGUI-103    
1 66419U 25258H   26064.73368723 -.00000044  00000+0  17286-3 0  9990
2 66419  50.0013 306.4112 0000319  87.5567 272.5342 13.29333675 15974
HULIANWANG DIGUI-104    
1 66420U 25258J   26064.72534876 -.00000047  00000+0  16519-3 0  9996
2 66420  50.0030 306.3903 0000409 109.0181 251.0735 13.29333048 15965
HULIANWANG DIGUI-105    
1 66915U 25285A   26064.72925139 -.00000083  00000+0  88031-4 0  9990
2 66915  50.0044 157.2677 0000088 295.3279  64.7584 13.29330874 12298
HULIANWANG DIGUI-106    
1 66916U 25285B   26063.21759307 -.00623778  00000+0 -14013+1 0  9994
2 66916  49.9908 162.6187 0006718  40.7121 319.4252 13.29373542 12094
HULIANWANG DIGUI-107    
1 66917U 25285C   26064.63737039 -.00000095  00000+0  61796-4 0  9994
2 66917  50.0021 157.4322 0000023 303.9534  56.1336 13.29330711 12282
HULIANWANG DIGUI-108    
1 66918U 25285D   26064.47865032 -.00000084  00000+0  86952-4 0  9991
2 66918  50.0044 157.9452 0000019 314.9470  45.1400 13.29331360 12262
HULIANWANG DIGUI-109    
1 66919U 25285E   26064.62065662 -.00000069  00000+0  11873-3 0  9992
2 66919  50.0067 157.3824 0000055 341.0521  19.0349 13.29331111 12292
HULIANWANG DIGUI-110    
1 66920U 25285F   26064.68748833 -.00000090  00000+0  72897-4 0  9996
2 66920  50.0100 157.0955 0000056 295.4005  64.6861 13.29330269 12292
HULIANWANG DIGUI-111    
1 66921U 25285G   26064.67913338 -.00000080  00000+0  95942-4 0  9995
2 66921  50.0117 157.0657 0000063 314.1651  45.9216 13.29330479 12293
HULIANWANG DIGUI-112    
1 66922U 25285H   26064.67078046 -.00000050  00000+0  15973-3 0  9996
2 66922  50.0079 156.9943 0000077 305.1274  54.9591 13.29331079 12296
