[{"OBJECT_NAME":"HULIANWANG DIGUI-97","OBJECT_ID":"2025-258B","EPOCH":"2026-03-05T17:12:28.780128","MEAN_MOTION":13.29332474,"ECCENTRICITY":4.23e-5,"INCLINATION":50.0017,"RA_OF_ASC_NODE":306.9964,"ARG_OF_PERICENTER":98.9631,"MEAN_ANOMALY":261.1289,"EPHEMERIS_TYPE":0,"CLASSIFICATION_TYPE":"U","NORAD_CAT_ID":66413,"ELEMENT_SET_NO":999,"REV_AT_EPOCH":1596,"BSTAR":0.00017538,"MEAN_MOTION_DOT":-4.3e-7,"MEAN_MOTION_DDOT":0},{"OBJECT_NAME":"HULIANWANG DIGUI-98","OBJECT_ID":"2025-258C","EPOCH":"2026-03-05T17:00:24.768864","MEAN_MOTION":13.29334072,"ECCENTRICITY":4.82e-5,"INCLINATION":50.0054,"RA_OF_ASC_NODE":306.995,"ARG_OF_PERICENTER":111.0749,"MEAN_ANOMALY":249.0175,"EPHEMERIS_TYPE":0,"CLASSIFICATION_TYPE":"U","NORAD_CAT_ID":66414,"ELEMENT_SET_NO":999,"REV_AT_EPOCH":1596,"BSTAR":0.00017963,"MEAN_MOTION_DOT":-4.1e-7,"MEAN_MOTION_DDOT":0},{"OBJECT_NAME":"HULIANWANG DIGUI-99","OBJECT_ID":"2025-258D","EPOCH":"2026-03-05T18:00:35.743680","MEAN_MOTION":13.29331549,"ECCENTRICITY":3.65e-5,"INCLINATION":50.0052,"RA_OF_ASC_NODE":306.5459,"ARG_OF_PERICENTER":93.2747,"MEAN_ANOMALY":266.8167,"EPHEMERIS_TYPE":0,"CLASSIFICATION_TYPE":"U","NORAD_CAT_ID":66415,"ELEMENT_SET_NO":999,"REV_AT_EPOCH":1596,"BSTAR":0.00015254,"MEAN_MOTION_DOT":-5.3e-7,"MEAN_MOTION_DDOT":0},{"OBJECT_NAME":"HULIANWANG DIGUI-100","OBJECT_ID":"2025-258E","EPOCH":"2026-03-05T16:48:23.463648","MEAN_MOTION":13.2933459,"ECCENTRICITY":3.46e-5,"INCLINATION":50.0056,"RA_OF_ASC_NODE":306.9539,"ARG_OF_PERICENTER":91.6015,"MEAN_ANOMALY":268.4897,"EPHEMERIS_TYPE":0,"CLASSIFICATION_TYPE":"U","NORAD_CAT_ID":66416,"ELEMENT_SET_NO":999,"REV_AT_EPOCH":1597,"BSTAR":0.00017434,"MEAN_MOTION_DOT":-4.3e-7,"MEAN_MOTION_DDOT":0},{"OBJECT_NAME":"HULIANWANG DIGUI-101","OBJECT_ID":"2025-258F","EPOCH":"2026-03-05T18:24:38.388672","MEAN_MOTION":13.29332766,"ECCENTRICITY":3.78e-5,"INCLINATION":50.0006,"RA_OF_ASC_NODE":306.582,"ARG_OF_PERICENTER":86.5335,"MEAN_ANOMALY":273.558,"EPHEMERIS_TYPE":0,"CLASSIFICATION_TYPE":"U","NORAD_CAT_ID":66417,"ELEMENT_SET_NO":999,"REV_AT_EPOCH":1598,"BSTAR":0.00015567,"MEAN_MOTION_DOT":-5.2e-7,"MEAN_MOTION_DDOT":0},{"OBJECT_NAME":"HULIANWANG DIGUI-102","OBJECT_ID":"2025-258G","EPOCH":"2026-03-05T17:48:30.501216","MEAN_MOTION":13.29334649,"ECCENTRICITY":3.88e-5,"INCLINATION":50.0019,"RA_OF_ASC_NODE":306.4626,"ARG_OF_PERICENTER":105.1669,"MEAN_ANOMALY":254.9246,"EPHEMERIS_TYPE":0,"CLASSIFICATION_TYPE":"U","NORAD_CAT_ID":66418,"ELEMENT_SET_NO":999,"REV_AT_EPOCH":1597,"BSTAR":0.00016102,"MEAN_MOTION_DOT":-4.9e-7,"MEAN_MOTION_DDOT":0},{"OBJECT_NAME":"HULIANWANG DIGUI-103","OBJECT_ID":"2025-258H","EPOCH":"2026-03-05T17:36:30.576672","MEAN_MOTION":13.29333675,"ECCENTRICITY":3.19e-5,"INCLINATION":50.0013,"RA_OF_ASC_NODE":306.4112,"ARG_OF_PERICENTER":87.5567,"MEAN_ANOMALY":272.5342,"EPHEMERIS_TYPE":0,"CLASSIFICATION_TYPE":"U","NORAD_CAT_ID":66419,"ELEMENT_SET_NO":999,"REV_AT_EPOCH":1597,"BSTAR":0.00017286,"MEAN_MOTION_DOT":-4.4e-7,"MEAN_MOTION_DDOT":0},{"OBJECT_NAME":"HULIANWANG DIGUI-104","OBJECT_ID":"2025-258J","EPOCH":"2026-03-05T17:24:30.132864","MEAN_MOTION":13.29333048,"ECCENTRICITY":4.09e-5,"INCLINATION":50.003,"RA_OF_ASC_NODE":306.3903,"ARG_OF_PERICENTER":109.0181,"MEAN_ANOMALY":251.0735,"EPHEMERIS_TYPE":0,"CLASSIFICATION_TYPE":"U","NORAD_CAT_ID":66420,"ELEMENT_SET_NO":999,"REV_AT_EPOCH":1596,"BSTAR":0.00016519,"MEAN_MOTION_DOT":-4.7e-7,"MEAN_MOTION_DDOT":0},{"OBJECT_NAME":"HULIANWANG DIGUI-105","OBJECT_ID":"2025-285A","EPOCH":"2026-03-05T17:30:07.320096","MEAN_MOTION":13.29330874,"ECCENTRICITY":8.8e-6,"INCLINATION":50.0044,"RA_OF_ASC_NODE":157.2677,"ARG_OF_PERICENTER":295.3279,"MEAN_ANOMALY":64.7584,"EPHEMERIS_TYPE":0,"CLASSIFICATION_TYPE":"U","NORAD_CAT_ID":66915,"ELEMENT_SET_NO":999,"REV_AT_EPOCH":1229,"BSTAR":8.8031e-5,"MEAN_MOTION_DOT":-8.3e-7,"MEAN_MOTION_DDOT":0},{"OBJECT_NAME":"HULIANWANG DIGUI-106","OBJECT_ID":"2025-285B","EPOCH":"2026-03-04T05:13:20.041248","MEAN_MOTION":13.29373542,"ECCENTRICITY":0.00067182,"INCLINATION":49.9908,"RA_OF_ASC_NODE":162.6187,"ARG_OF_PERICENTER":40.7121,"MEAN_ANOMALY":319.4252,"EPHEMERIS_TYPE":0,"CLASSIFICATION_TYPE":"U","NORAD_CAT_ID":66916,"ELEMENT_SET_NO":999,"REV_AT_EPOCH":1209,"BSTAR":-1.4013495,"MEAN_MOTION_DOT":-0.00623778,"MEAN_MOTION_DDOT":0},{"OBJECT_NAME":"HULIANWANG DIGUI-107","OBJECT_ID":"2025-285C","EPOCH":"2026-03-05T15:17:48.801696","MEAN_MOTION":13.29330711,"ECCENTRICITY":2.3e-6,"INCLINATION":50.0021,"RA_OF_ASC_NODE":157.4322,"ARG_OF_PERICENTER":303.9534,"MEAN_ANOMALY":56.1336,"EPHEMERIS_TYPE":0,"CLASSIFICATION_TYPE":"U","NORAD_CAT_ID":66917,"ELEMENT_SET_NO":999,"REV_AT_EPOCH":1228,"BSTAR":6.1796e-5,"MEAN_MOTION_DOT":-9.5e-7,"MEAN_MOTION_DDOT":0},{"OBJECT_NAME":"HULIANWANG DIGUI-108","OBJECT_ID":"2025-285D","EPOCH":"2026-03-05T11:29:15.387648","MEAN_MOTION":13.2933136,"ECCENTRICITY":1.9e-6,"INCLINATION":50.0044,"RA_OF_ASC_NODE":157.9452,"ARG_OF_PERICENTER":314.947,"MEAN_ANOMALY":45.14,"EPHEMERIS_TYPE":0,"CLASSIFICATION_TYPE":"U","NORAD_CAT_ID":66918,"ELEMENT_SET_NO":999,"REV_AT_EPOCH":1226,"BSTAR":8.6952e-5,"MEAN_MOTION_DOT":-8.4e-7,"MEAN_MOTION_DDOT":0},{"OBJECT_NAME":"HULIANWANG DIGUI-109","OBJECT_ID":"2025-285E","EPOCH":"2026-03-05T14:53:44.731968","MEAN_MOTION":13.29331111,"ECCENTRICITY":5.5e-6,"INCLINATION":50.0067,"RA_OF_ASC_NODE":157.3824,"ARG_OF_PERICENTER":341.0521,"MEAN_ANOMALY":19.0349,"EPHEMERIS_TYPE":0,"CLASSIFICATION_TYPE":"U","NORAD_CAT_ID":66919,"ELEMENT_SET_NO":999,"REV_AT_EPOCH":1229,"BSTAR":0.00011873,"MEAN_MOTION_DOT":-6.9e-7,"MEAN_MOTION_DDOT":0},{"OBJECT_NAME":"HULIANWANG DIGUI-110","OBJECT_ID":"2025-285F","EPOCH":"2026-03-05T16:29:58.991712","MEAN_MOTION":13.29330269,"ECCENTRICITY":5.6e-6,"INCLINATION":50.01,"RA_OF_ASC_NODE":157.0955,"ARG_OF_PERICENTER":295.4005,"MEAN_ANOMALY":64.6861,"EPHEMERIS_TYPE":0,"CLASSIFICATION_TYPE":"U","NORAD_CAT_ID":66920,"ELEMENT_SET_NO":999,"REV_AT_EPOCH":1229,"BSTAR":7.2897e-5,"MEAN_MOTION_DOT":-9.0e-7,"MEAN_MOTION_DDOT":0},{"OBJECT_NAME":"HULIANWANG DIGUI-111","OBJECT_ID":"2025-285G","EPOCH":"2026-03-05T16:17:57.124032","MEAN_MOTION":13.29330479,"ECCENTRICITY":6.3e-6,"INCLINATION":50.0117,"RA_OF_ASC_NODE":157.0657,"ARG_OF_PERICENTER":314.1651,"MEAN_ANOMALY":45.9216,"EPHEMERIS_TYPE":0,"CLASSIFICATION_TYPE":"U","NORAD_CAT_ID":66921,"ELEMENT_SET_NO":999,"REV_AT_EPOCH":1229,"BSTAR":9.5942e-5,"MEAN_MOTION_DOT":-8.0e-7,"MEAN_MOTION_DDOT":0},{"OBJECT_NAME":"HULIANWANG DIGUI-112","OBJECT_ID":"2025-285H","EPOCH":"2026-03-05T16:05:55.431744","MEAN_MOTION":13.29331079,"ECCENTRICITY":7.7e-6,"INCLINATION":50.0079,"RA_OF_ASC_NODE":156.9943,"ARG_OF_PERICENTER":305.1274,"MEAN_ANOMALY":54.9591,"EPHEMERIS_TYPE":0,"CLASSIFICATION_TYPE":"U","NORAD_CAT_ID":66922,"ELEMENT_SET_NO":999,"REV_AT_EPOCH":1229,"BSTAR":0.00015973,"MEAN_MOTION_DOT":-5.0e-7,"MEAN_MOTION_DDOT":0}]
